[{"OBJECT_NAME":"STARLINK-4034","OBJECT_ID":"2022-053AW","EPOCH":"2026-01-31T22:08:57.482592","MEAN_MOTION":15.0882613,"ECCENTRICITY":0.00016854,"INCLINATION":53.2173,"RA_OF_ASC_NODE":313.8154,"ARG_OF_PERICENTER":84.2775,"MEAN_ANOMALY":275.8409,"EPHEMERIS_TYPE":0,"CLASSIFICATION_TYPE":"U","NORAD_CAT_ID":52700,"ELEMENT_SET_NO":999,"REV_AT_EPOCH":20554,"BSTAR":0.00012602105,"MEAN_MOTION_DOT":1.717e-5,"MEAN_MOTION_DDOT":0},{"OBJECT_NAME":"STARLINK-4033","OBJECT_ID":"2022-053AY","EPOCH":"2026-01-31T22:51:24.872544","MEAN_MOTION":15.08838675,"ECCENTRICITY":0.0001256,"INCLINATION":53.2179,"RA_OF_ASC_NODE":314.0708,"ARG_OF_PERICENTER":96.2326,"MEAN_ANOMALY":263.881,"EPHEMERIS_TYPE":0,"CLASSIFICATION_TYPE":"U","NORAD_CAT_ID":52702,"ELEMENT_SET_NO":999,"REV_AT_EPOCH":20554,"BSTAR":0.00017212447,"MEAN_MOTION_DOT":2.452e-5,"MEAN_MOTION_DDOT":0},{"OBJECT_NAME":"STARLINK-4020","OBJECT_ID":"2022-053AZ","EPOCH":"2026-01-31T21:52:30.044640","MEAN_MOTION":15.08823327,"ECCENTRICITY":0.00013042,"INCLINATION":53.2193,"RA_OF_ASC_NODE":299.2428,"ARG_OF_PERICENTER":97.1711,"MEAN_ANOMALY":262.9429,"EPHEMERIS_TYPE":0,"CLASSIFICATION_TYPE":"U","NORAD_CAT_ID":52703,"ELEMENT_SET_NO":999,"REV_AT_EPOCH":20448,"BSTAR":-0.00010227236,"MEAN_MOTION_DOT":-1.914e-5,"MEAN_MOTION_DDOT":0},{"OBJECT_NAME":"STARLINK-3999","OBJECT_ID":"2022-053BA","EPOCH":"2026-01-31T22:13:39.537984","MEAN_MOTION":15.08836678,"ECCENTRICITY":0.00013562,"INCLINATION":53.2181,"RA_OF_ASC_NODE":299.1606,"ARG_OF_PERICENTER":86.967,"MEAN_ANOMALY":273.1477,"EPHEMERIS_TYPE":0,"CLASSIFICATION_TYPE":"U","NORAD_CAT_ID":52704,"ELEMENT_SET_NO":999,"REV_AT_EPOCH":20576,"BSTAR":7.722278e-5,"MEAN_MOTION_DOT":9.41e-6,"MEAN_MOTION_DDOT":0},{"OBJECT_NAME":"STARLINK-3844","OBJECT_ID":"2022-053BB","EPOCH":"2026-01-31T21:57:45.533376","MEAN_MOTION":15.08845155,"ECCENTRICITY":0.00014332,"INCLINATION":53.2181,"RA_OF_ASC_NODE":299.209,"ARG_OF_PERICENTER":83.2617,"MEAN_ANOMALY":276.8538,"EPHEMERIS_TYPE":0,"CLASSIFICATION_TYPE":"U","NORAD_CAT_ID":52705,"ELEMENT_SET_NO":999,"REV_AT_EPOCH":20576,"BSTAR":-5.7887225e-5,"MEAN_MOTION_DOT":-1.209e-5,"MEAN_MOTION_DDOT":0},{"OBJECT_NAME":"STARLINK-3970","OBJECT_ID":"2022-053BC","EPOCH":"2026-01-31T22:03:03.801600","MEAN_MOTION":15.08839424,"ECCENTRICITY":0.00014187,"INCLINATION":53.2175,"RA_OF_ASC_NODE":299.1944,"ARG_OF_PERICENTER":95.6516,"MEAN_ANOMALY":264.4638,"EPHEMERIS_TYPE":0,"CLASSIFICATION_TYPE":"U","NORAD_CAT_ID":52706,"ELEMENT_SET_NO":999,"REV_AT_EPOCH":20576,"BSTAR":0.00022133456,"MEAN_MOTION_DOT":3.236e-5,"MEAN_MOTION_DDOT":0},{"OBJECT_NAME":"STARLINK-4007","OBJECT_ID":"2022-053BD","EPOCH":"2026-01-31T21:31:13.584000","MEAN_MOTION":15.08837484,"ECCENTRICITY":0.00026385,"INCLINATION":53.2172,"RA_OF_ASC_NODE":299.1642,"ARG_OF_PERICENTER":143.6492,"MEAN_ANOMALY":216.468,"EPHEMERIS_TYPE":0,"CLASSIFICATION_TYPE":"U","NORAD_CAT_ID":52707,"ELEMENT_SET_NO":999,"REV_AT_EPOCH":20582,"BSTAR":-0.00016080891,"MEAN_MOTION_DOT":-2.847e-5,"MEAN_MOTION_DDOT":0},{"OBJECT_NAME":"STARLINK-3962","OBJECT_ID":"2022-053BE","EPOCH":"2026-02-01T00:10:14.561472","MEAN_MOTION":15.08834573,"ECCENTRICITY":0.00014014,"INCLINATION":53.2175,"RA_OF_ASC_NODE":298.7869,"ARG_OF_PERICENTER":87.2597,"MEAN_ANOMALY":272.8556,"EPHEMERIS_TYPE":0,"CLASSIFICATION_TYPE":"U","NORAD_CAT_ID":52708,"ELEMENT_SET_NO":999,"REV_AT_EPOCH":20598,"BSTAR":0.00012218275,"MEAN_MOTION_DOT":1.657e-5,"MEAN_MOTION_DDOT":0},{"OBJECT_NAME":"STARLINK-4091","OBJECT_ID":"2022-062A","EPOCH":"2026-01-31T16:31:53.180544","MEAN_MOTION":15.08835713,"ECCENTRICITY":0.00012551,"INCLINATION":53.2161,"RA_OF_ASC_NODE":200.417,"ARG_OF_PERICENTER":86.6894,"MEAN_ANOMALY":273.4242,"EPHEMERIS_TYPE":0,"CLASSIFICATION_TYPE":"U","NORAD_CAT_ID":52830,"ELEMENT_SET_NO":999,"REV_AT_EPOCH":20019,"BSTAR":4.2642845e-5,"MEAN_MOTION_DOT":3.91e-6,"MEAN_MOTION_DDOT":0},{"OBJECT_NAME":"STARLINK-4089","OBJECT_ID":"2022-062B","EPOCH":"2026-01-31T16:21:15.284160","MEAN_MOTION":15.08837337,"ECCENTRICITY":0.00012631,"INCLINATION":53.2174,"RA_OF_ASC_NODE":200.2546,"ARG_OF_PERICENTER":92.7015,"MEAN_ANOMALY":267.4122,"EPHEMERIS_TYPE":0,"CLASSIFICATION_TYPE":"U","NORAD_CAT_ID":52831,"ELEMENT_SET_NO":999,"REV_AT_EPOCH":20019,"BSTAR":3.4616967e-5,"MEAN_MOTION_DOT":2.63e-6,"MEAN_MOTION_DDOT":0},{"OBJECT_NAME":"STARLINK-4083","OBJECT_ID":"2022-062C","EPOCH":"2026-01-31T16:15:57.239712","MEAN_MOTION":15.08838309,"ECCENTRICITY":0.00012417,"INCLINATION":53.2171,"RA_OF_ASC_NODE":200.2732,"ARG_OF_PERICENTER":101.8937,"MEAN_ANOMALY":258.2194,"EPHEMERIS_TYPE":0,"CLASSIFICATION_TYPE":"U","NORAD_CAT_ID":52832,"ELEMENT_SET_NO":999,"REV_AT_EPOCH":20019,"BSTAR":6.164639e-5,"MEAN_MOTION_DOT":6.93e-6,"MEAN_MOTION_DDOT":0},{"OBJECT_NAME":"STARLINK-4086","OBJECT_ID":"2022-062D","EPOCH":"2026-01-31T16:10:39.393120","MEAN_MOTION":15.08836823,"ECCENTRICITY":0.00013263,"INCLINATION":53.216,"RA_OF_ASC_NODE":200.2908,"ARG_OF_PERICENTER":96.4367,"MEAN_ANOMALY":263.6776,"EPHEMERIS_TYPE":0,"CLASSIFICATION_TYPE":"U","NORAD_CAT_ID":52833,"ELEMENT_SET_NO":999,"REV_AT_EPOCH":20019,"BSTAR":3.0810517e-5,"MEAN_MOTION_DOT":2.02e-6,"MEAN_MOTION_DDOT":0},{"OBJECT_NAME":"STARLINK-4108","OBJECT_ID":"2022-062E","EPOCH":"2026-01-31T20:46:12.580032","MEAN_MOTION":15.08840722,"ECCENTRICITY":0.00013375,"INCLINATION":53.216,"RA_OF_ASC_NODE":199.4313,"ARG_OF_PERICENTER":92.9078,"MEAN_ANOMALY":267.2067,"EPHEMERIS_TYPE":0,"CLASSIFICATION_TYPE":"U","NORAD_CAT_ID":52834,"ELEMENT_SET_NO":999,"REV_AT_EPOCH":20022,"BSTAR":5.4195644e-5,"MEAN_MOTION_DOT":5.75e-6,"MEAN_MOTION_DDOT":0},{"OBJECT_NAME":"STARLINK-4080","OBJECT_ID":"2022-062F","EPOCH":"2026-01-31T20:40:54.700608","MEAN_MOTION":15.08840102,"ECCENTRICITY":0.0001393,"INCLINATION":53.2164,"RA_OF_ASC_NODE":199.447,"ARG_OF_PERICENTER":89.0429,"MEAN_ANOMALY":271.0723,"EPHEMERIS_TYPE":0,"CLASSIFICATION_TYPE":"U","NORAD_CAT_ID":52835,"ELEMENT_SET_NO":999,"REV_AT_EPOCH":20022,"BSTAR":5.1934478e-5,"MEAN_MOTION_DOT":5.39e-6,"MEAN_MOTION_DDOT":0},{"OBJECT_NAME":"STARLINK-4043","OBJECT_ID":"2022-062G","EPOCH":"2026-01-31T18:08:40.639488","MEAN_MOTION":15.08833846,"ECCENTRICITY":0.00011903,"INCLINATION":53.2167,"RA_OF_ASC_NODE":200.2404,"ARG_OF_PERICENTER":89.6663,"MEAN_ANOMALY":270.4465,"EPHEMERIS_TYPE":0,"CLASSIFICATION_TYPE":"U","NORAD_CAT_ID":52836,"ELEMENT_SET_NO":999,"REV_AT_EPOCH":20020,"BSTAR":9.28764e-6,"MEAN_MOTION_DOT":-1.4e-6,"MEAN_MOTION_DDOT":0},{"OBJECT_NAME":"STARLINK-4036","OBJECT_ID":"2022-062H","EPOCH":"2026-01-31T18:49:37.723296","MEAN_MOTION":15.08838962,"ECCENTRICITY":0.00012851,"INCLINATION":53.2165,"RA_OF_ASC_NODE":199.7942,"ARG_OF_PERICENTER":83.3155,"MEAN_ANOMALY":276.7983,"EPHEMERIS_TYPE":0,"CLASSIFICATION_TYPE":"U","NORAD_CAT_ID":52837,"ELEMENT_SET_NO":999,"REV_AT_EPOCH":20021,"BSTAR":7.8248893e-5,"MEAN_MOTION_DOT":9.58e-6,"MEAN_MOTION_DDOT":0}]
