STARLINK-4034           
1 52700U 22053AW  26031.92288753  .00001717  00000+0  12602-3 0  9991
2 52700  53.2173 313.8154 0001685  84.2775 275.8409 15.08826130205540
STARLINK-4033           
1 52702U 22053AY  26031.95237121  .00002452  00000+0  17212-3 0  9998
2 52702  53.2179 314.0708 0001256  96.2326 263.8810 15.08838675205545
STARLINK-4020           
1 52703U 22053AZ  26031.91145885 -.00001914  00000+0 -10227-3 0  9993
2 52703  53.2193 299.2428 0001304  97.1711 262.9429 15.08823327204483
STARLINK-3999           
1 52704U 22053BA  26031.92615206  .00000941  00000+0  77223-4 0  9991
2 52704  53.2181 299.1606 0001356  86.9670 273.1477 15.08836678205767
STARLINK-3844           
1 52705U 22053BB  26031.91511034 -.00001209  00000+0 -57887-4 0  9999
2 52705  53.2181 299.2090 0001433  83.2617 276.8538 15.08845155205761
STARLINK-3970           
1 52706U 22053BC  26031.91879400  .00003236  00000+0  22133-3 0  9999
2 52706  53.2175 299.1944 0001418  95.6516 264.4638 15.08839424205766
STARLINK-4007           
1 52707U 22053BD  26031.89668500 -.00002847  00000+0 -16081-3 0  9998
2 52707  53.2172 299.1642 0002638 143.6492 216.4680 15.08837484205826
STARLINK-3962           
1 52708U 22053BE  26032.00711298  .00001657  00000+0  12218-3 0  9990
2 52708  53.2175 298.7869 0001401  87.2597 272.8556 15.08834573205983
STARLINK-4091           
1 52830U 22062A   26031.68880996  .00000391  00000+0  42643-4 0  9991
2 52830  53.2161 200.4170 0001255  86.6894 273.4242 15.08835713200193
STARLINK-4089           
1 52831U 22062B   26031.68142690  .00000263  00000+0  34617-4 0  9994
2 52831  53.2174 200.2546 0001263  92.7015 267.4122 15.08837337200199
STARLINK-4083           
1 52832U 22062C   26031.67774583  .00000693  00000+0  61646-4 0  9995
2 52832  53.2171 200.2732 0001241 101.8937 258.2194 15.08838309200192
STARLINK-4086           
1 52833U 22062D   26031.67406705  .00000202  00000+0  30811-4 0  9990
2 52833  53.2160 200.2908 0001326  96.4367 263.6776 15.08836823200191
STARLINK-4108           
1 52834U 22062E   26031.86542338  .00000575  00000+0  54196-4 0  9990
2 52834  53.2160 199.4313 0001337  92.9078 267.2067 15.08840722200223
STARLINK-4080           
1 52835U 22062F   26031.86174422  .00000539  00000+0  51934-4 0  9993
2 52835  53.2164 199.4470 0001393  89.0429 271.0723 15.08840102200225
STARLINK-4043           
1 52836U 22062G   26031.75602592 -.00000140  00000+0  92876-5 0  9996
2 52836  53.2167 200.2404 0001190  89.6663 270.4465 15.08833846200209
STARLINK-4036           
1 52837U 22062H   26031.78446439  .00000958  00000+0  78249-4 0  9999
2 52837  53.2165 199.7942 0001285  83.3155 276.7983 15.08838962200218
